#dP2020  3 31  0  0  0.00000000      97 __u+U IGS14 FIT  IAC
## 2099 172800.00000000   900.00000000 58939 0.0000000000000
+  121   C01C02C03C04C06C07C08C09C10C11C12C13C14C16C19C20C21
+        C22C23C24C25C26C27C28C29C30C32C33C34C35C36C37C38C39
+        C40C43C44C45C46E01E02E03E04E05E07E08E09E11E12E13E14
+        E15E18E21E24E25E26E27E30E31E33E36G01G02G03G04G05G06
+        G07G08G09G10G11G12G13G14G15G16G17G18G19G20G21G22G23
+        G24G25G26G27G28G29G30G31G32J01J02J03J07R01R02R03R04
+        R05R07R08R09R11R12R13R14R15R16R17R18R19R20R21R22R23
+        R24R26  0  0  0  0  0  0  0  0  0  0  0  0  0  0  0
++         0  0  0  0  0  0  0  0  0  0  0  0  0  0  0  0  0
++         0  0  0  0  0  0  0  0  0  0  0  0  0  0  0  0  0
++         0  0  0  0  0  0  0  0  0  0  0  0  0  0  0  0  0
++         0  0  0  0  0  0  0  0  0  0  0  0  0  0  0  0  0
++         0  0  0  0  0  0  0  0  0  0  0  0  0  0  0  0  0
++         0  0  0  0  0  0  0  0  0  0  0  0  0  0  0  0  0
++         0  0  0  0  0  0  0  0  0  0  0  0  0  0  0  0  0
++         0  0  0  0  0  0  0  0  0  0  0  0  0  0  0  0  0
%c M  cc GPS ccc cccc cccc cccc cccc ccccc ccccc ccccc ccccc
%c cc cc ccc ccc cccc cccc cccc cccc ccccc ccccc ccccc ccccc
%f  1.2500000  1.025000000  0.00000000000  0.000000000000000
%f  0.0000000  0.000000000  0.00000000000  0.000000000000000
%i    0    0    0    0      0      0      0      0         0
%i    0    0    0    0      0      0      0      0         0
/* INFORMATION & ANALYSIS CENTER (IAC)            FINAL DATA
/* S/V CLOCKS ARE ALIGNED TO GNSS TIME                      
/* G:C1WC2W R:C1PC2P E:C1XC5X C:C2IC6I J:C1CC2S             
/* PCV:IGS14_2097 OL/AL:FES2004  NONE     YN ORB:CoN CLK:CoN
*  2020 03 31 10  0  0.00000000
PC01      0.000000      0.000000      0.000000 999999.999999
PC02   4353.856410  41937.266593   -462.281737    447.219616
PC03 -14824.712524  39434.277406    461.403385    232.658525
PC04 -39610.078202  14421.672026    729.115322   -170.098587
PC06 -13358.517034  20723.267047 -33837.349857    241.864520
PC07 -23930.436113  32339.010833  11933.772554    899.779598
PC08  -8916.734181  35193.462998  21806.755531   -179.443890
PC09   3129.413638  27079.057749 -31817.303831    439.703151
PC10 -11077.889532  33377.191178  23130.650197   -809.357671
PC11   5147.704385 -15280.404821 -22709.336687   -273.899369
PC12  19968.147395    196.666196 -19466.113217    341.178755
PC13   -128.378179  41374.706724   8871.450947    354.666166
PC14  16092.438291 -17168.963800  15077.183847    250.964715
PC16  -8395.149345  22617.428959 -34502.244040   -700.579321
PC19  -6444.495567  17658.700601 -20588.931839    368.061461
PC20 -22671.410763  14209.373560  -7852.039041   -930.797507
PC21  25977.343766  -2152.686696  -9972.094596   -232.106563
PC22  13887.514732  10920.155412 -21598.776542   -851.871604
PC23  -8609.696080 -20247.098807 -17167.976785   -933.129879
PC24  14432.345695 -18418.513088  15176.999172   -877.607198
PC25   3158.935691 -27658.631815  -1802.990626   -566.874085
PC26  16254.612878    161.461858  22673.469537    626.640191
PC27 -23265.261938  -8489.263521  12871.632170    304.676932
PC28 -18669.593471 -20275.369189  -4359.782308    295.655666
PC29   3949.579149  20068.131875  18976.810232    208.411459
PC30 -14172.237871   8549.340569  22471.388641    294.943632
PC32 -25951.354901   2304.932934  10004.815296   -916.089698
PC33   6428.644918 -17747.464521  20571.111745   -888.062593
PC34  13826.965631  -8939.366114 -22530.843875   -592.921794
PC35  19229.263728  19685.755537   4507.954538   -913.913055
PC36  -3941.943749  27578.992232   1602.058759   -821.219116
PC37 -16142.986067  -1224.334143 -22717.175886   -849.951488
PC38  -7666.860248  37407.634265  18007.322106     69.734043
PC39  -6460.197613  23283.743612 -34542.811320     12.945361
PC40 -18250.041108  29879.828599  23347.989435     30.791988
PC43  -3544.261020 -20102.987794 -19041.091226   -129.376299
PC44  23570.594299   7784.350525 -12714.388173   -147.761931
PC45   8559.203105  20255.300004  17192.076297     98.372277
PC46 -14150.809884  18875.756149 -14928.519255    910.142624
PE01  -5823.996393  25160.716119  14462.813317   -826.089782
PE02   5735.172907 -25130.028350 -14544.906698    123.159514
PE03  -1699.782663 -17234.225589  24007.421214   -282.750547
PE04  21914.643809  12737.086544 -15279.288932   -496.000324
PE05  19720.054708 -11669.500816  18744.179186   -392.640629
PE07 -29475.782167   -682.362450  -2556.508277   -361.679661
PE08 -22147.415297 -12416.227293  15210.124595   6199.062849
PE09  29485.589652    428.560196   2671.017770   6108.180691
PE11  18698.986443   4651.338418 -22462.397047   2016.472490
PE12  16983.038158  22808.518285  -8163.317930   5877.484959
PE13 -18727.639845  -4911.438793  22404.184098    399.681416
PE14  24060.711007  -6815.815032 -19659.674347   -960.327277
PE15 -17150.843654 -22634.140798   8382.196432    872.108915
PE18 -22331.080619  -1236.729698  10263.018318  -1058.655781
PE21 -18715.842731  22637.131111  -3691.300224   -590.913816
PE24  20873.986839  -6501.450747  19927.148161   5532.006032
PE25  18759.385623 -22577.592594   3796.282843   -508.264937
PE26  -9327.507269  16038.042715  23071.786365   3356.676326
PE27 -20856.119669   6792.054827 -19882.976800    250.838543
PE30 -10541.444855 -13276.110831 -24277.138955   4023.839704
PE31  10739.210612  12983.848167  24337.678308   -472.146802
PE33   5479.142253  27083.215915  10604.992790   -468.932912
PE36   9302.698375 -15724.265244 -23281.733723    579.046007
PG01 -14211.288822   4065.348557  21838.792078   -343.685062
PG02  13451.332651  18737.909181 -12585.557076   -431.372550
PG03 -22560.648695  11695.991685   7486.383825   -132.476490
PG04 -21833.065014   2245.921765 -14967.372036    -69.746060
PG05  15452.373676   6253.208828 -20850.327925    -10.038718
PG06   7050.365132  25213.067843  -4285.045627   -242.848068
PG07  -6807.704447  21132.029674 -13914.232452   -247.995139
PG08 -25616.721312  -5686.662980   4937.860846    -29.023089
PG09 -12934.146880  10853.220393 -20559.202535   -188.038363
PG10   5455.068170 -19665.803488  16956.423995   -295.107985
PG11 -19551.333770  -5194.958157  16572.042706   -318.572932
PG12  23149.904093  -8877.624996   9057.182833    134.599891
PG13  22962.047805  13374.458861  -1471.840759     -1.598762
PG14 -14115.214139 -17757.756562  14306.063081    -22.721255
PG15  26058.430238   3084.935666   4949.394733   -241.230666
PG16 -15430.959055  -6535.726501 -20929.182911   -141.187121
PG17   4501.782904  16880.798365  20442.857662    241.123281
PG18  10114.708849 -17005.493095 -17720.192205    139.056616
PG19  12521.223261  17602.636823  15160.420408   -178.437189
PG20  13529.633312 -21676.728215   6749.082437    527.847927
PG21   4124.012631 -22588.302777 -12784.701168    -20.466868
PG22 -21369.047244   4987.997637  15094.653132   -785.271818
PG23 -21240.493558   4249.691865 -15290.417402   -125.744641
PG24  15479.518362  -2402.954548  21260.979325    -11.069949
PG25  20083.348365 -17137.547212   -908.999340     -6.067901
PG26  -6638.904915 -14491.589402 -21251.071364    178.300955
PG27 -22843.794355 -12737.720444  -5697.398549   -253.780894
PG28  -5627.341332  18819.367037  18530.173773    728.930033
PG29  15336.810539  -7737.821498 -20299.686882    -69.711188
PG30    289.939457  26124.401066  -4084.189627   -187.779903
PG31  -8015.157221 -24167.213457  -6705.835479    -32.957127
PG32  -6253.802982 -17005.306035  19543.919753    248.974463
PJ01 -33927.897349  20333.751472  -9963.244607   -333.439218
PJ02 -24724.910712  32026.093898  -7443.806191     -2.135477
PJ03 -27386.026257  21688.661057  28676.768079     -1.566514
PJ07 -25383.714108  33667.051934    -46.924506      0.036330
PR01 -23204.753344   7774.019220  -7161.537427     59.325238
PR02  -6106.729193  11474.753571 -21914.942266    419.470073
PR03  12924.976332   7775.387920 -20511.958361     12.483265
PR04  24375.363321   -481.567725  -7469.680216     43.888548
PR05  22023.682037  -8278.122277   9842.208152     47.760858
PR07 -13521.377982  -7586.384267  20306.911476    -34.945788
PR08 -24375.848161    332.160589   7587.102220    -51.341093
PR09   4611.990462 -23781.717430  -8086.652731    124.757921
PR11 -12186.769339   1691.904011 -22329.979509    -18.573739
PR12 -13116.912326  17720.535329 -12831.023888    118.605989
PR13  -6486.793816  24241.285105   4558.827259    -36.749700
PR14   3734.771863  16322.397534  19244.791741     49.675515
PR15  11797.562746   -808.899848  22615.113515    106.248424
PR16  12762.206670 -18185.502104  12390.845198     -2.471342
PR17  15168.392338  20386.881121   2414.480674    313.527142
PR18  17679.732639  11831.645048 -14010.441376     30.388352
PR19  11044.726588  -2375.944872 -22866.152616    -86.401042
PR20  -3317.894610 -17600.540641 -18176.693779   -407.961292
PR21 -15505.116819 -20189.226586  -1475.995419   -114.916149
PR22 -17187.420837  -9929.537565  16107.421235    -20.027228
PR23  -6547.744508   8430.167390  23161.721981    296.106965
PR24   5488.169529  18655.098826  16472.888667    -49.788061
PR26   -144.732783 -14952.148532 -20645.613167   -400.596602
EOF
